[{"OBJECT_NAME":"YAOGAN-2","OBJECT_ID":"2007-019A","EPOCH":"2026-03-09T14:35:50.831808","MEAN_MOTION":14.82510137,"ECCENTRICITY":0.001955,"INCLINATION":98.2784,"RA_OF_ASC_NODE":285.8374,"ARG_OF_PERICENTER":233.2135,"MEAN_ANOMALY":126.7283,"EPHEMERIS_TYPE":0,"CLASSIFICATION_TYPE":"U","NORAD_CAT_ID":31490,"ELEMENT_SET_NO":999,"REV_AT_EPOCH":1286,"BSTAR":0.00014435,"MEAN_MOTION_DOT":1.104e-5,"MEAN_MOTION_DDOT":0},{"OBJECT_NAME":"IRIDIUM 33 DEB","OBJECT_ID":"1997-051ST","EPOCH":"2026-03-07T21:30:34.542432","MEAN_MOTION":14.77906491,"ECCENTRICITY":0.0011118,"INCLINATION":86.3242,"RA_OF_ASC_NODE":296.5068,"ARG_OF_PERICENTER":321.559,"MEAN_ANOMALY":38.4837,"EPHEMERIS_TYPE":0,"CLASSIFICATION_TYPE":"U","NORAD_CAT_ID":35809,"ELEMENT_SET_NO":999,"REV_AT_EPOCH":88064,"BSTAR":0.0019374861,"MEAN_MOTION_DOT":0.00013997,"MEAN_MOTION_DDOT":0}]
